[{"OBJECT_NAME":"STARLINK-5953","OBJECT_ID":"2023-078AJ","EPOCH":"2026-03-09T22:00:21.196800","MEAN_MOTION":14.98328807,"ECCENTRICITY":0.00025563,"INCLINATION":70.0008,"RA_OF_ASC_NODE":343.9061,"ARG_OF_PERICENTER":270.8954,"MEAN_ANOMALY":89.1912,"EPHEMERIS_TYPE":0,"CLASSIFICATION_TYPE":"U","NORAD_CAT_ID":56799,"ELEMENT_SET_NO":999,"REV_AT_EPOCH":15271,"BSTAR":-4.599535e-6,"MEAN_MOTION_DOT":-1.48e-6,"MEAN_MOTION_DDOT":0},{"OBJECT_NAME":"CZ-6A DEB","OBJECT_ID":"2022-151VZ","EPOCH":"2026-03-09T16:21:33.047136","MEAN_MOTION":14.85344496,"ECCENTRICITY":0.00547112,"INCLINATION":98.6299,"RA_OF_ASC_NODE":135.7677,"ARG_OF_PERICENTER":212.8524,"MEAN_ANOMALY":146.9284,"EPHEMERIS_TYPE":0,"CLASSIFICATION_TYPE":"U","NORAD_CAT_ID":55208,"ELEMENT_SET_NO":999,"REV_AT_EPOCH":17071,"BSTAR":0.0043323,"MEAN_MOTION_DOT":0.00038405,"MEAN_MOTION_DDOT":0}]
